GLOBALSTAR M068 [-]     
1 32266U 07048D   24109.44059253 -.00000020  00000+0  46699-3 0  9995
2 32266  51.9864 156.9855 0000658 270.8470 192.5798 12.62785264763897
GLOBALSTAR M079 [+]     
1 37188U 10054A   24109.84352779 -.00000072  00000+0  17713-3 0  9999
2 37188  52.0061 351.5567 0000991  84.4475  38.9155 12.62268510622864
GLOBALSTAR M074 [+]     
1 37189U 10054B   24109.08355148 -.00000071  00000+0  18238-3 0  9991
2 37189  52.0037 353.2596 0000683  81.3160  66.2751 12.62267078623375
GLOBALSTAR M076 [+]     
1 37190U 10054C   24109.97091271 -.00000073  00000+0  17353-3 0  9994
2 37190  52.0051 350.6893 0001012 113.7157 348.9913 12.62276698623207
GLOBALSTAR M077 [+]     
1 37191U 10054D   24109.96774600 -.00000066  00000+0  21009-3 0  9993
2 37191  52.0074 307.4348 0000760 102.8956  44.4234 12.62271762623574
GLOBALSTAR M075 [+]     
1 37192U 10054E   24109.97933674 -.00000074  00000+0  16631-3 0  9997
2 37192  51.9972  33.1553 0000702  68.8385  11.5782 12.62272618622432
GLOBALSTAR M073 [+]     
1 37193U 10054F   24109.74174632 -.00000064  00000+0  22432-3 0  9999
2 37193  52.0059 307.3763 0000883 101.8975 338.4054 12.62263979624236
GLOBALSTAR M083 [+]     
1 37739U 11033A   24109.60657492 -.00000056  00000+0  26842-3 0  9998
2 37739  51.9853 257.0973 0000691  89.9434  36.4358 12.62268966593237
GLOBALSTAR M088 [+]     
1 37740U 11033B   24109.33217286 -.00000085  00000+0  10539-3 0  9991
2 37740  51.9714 163.7823 0000391  85.1840 354.2078 12.62267119588747
GLOBALSTAR M091 [+]     
1 37741U 11033C   24109.35047983 -.00000082  00000+0  12346-3 0  9994
2 37741  51.9973 126.5204 0000483  50.1935  52.3024 12.62261626589536
GLOBALSTAR M085 [+]     
1 37742U 11033D   24109.95604787 -.00000080  00000+0  13107-3 0  9996
2 37742  51.9866  76.0889 0000651  51.0752 344.3202 12.62269691590129
GLOBALSTAR M081 [+]     
1 37743U 11033E   24109.37744396 -.00000086  00000+0  10052-3 0  9996
2 37743  51.9956  80.3759 0000719  62.9447 101.8563 12.62264227590194
GLOBALSTAR M089 [+]     
1 37744U 11033F   24109.95253979 -.00000078  00000+0  14269-3 0  9998
2 37744  51.9957  32.9350 0000666 104.1942 334.2875 12.62262101591116
GLOBALSTAR M084 [+]     
1 38040U 11080A   24109.73330458 -.00000085  00000+0  10284-3 0  9995
2 38040  52.0002 260.6640 0000811 132.3079 330.8348 12.62273493569069
GLOBALSTAR M080 [+]     
1 38041U 11080B   24109.63372946 -.00000086  00000+0  99581-4 0  9992
2 38041  52.0055 262.4268 0001032 131.2561 358.0108 12.62271404569172
GLOBALSTAR M082 [+]     
1 38042U 11080C   24109.47740007 -.00000094  00000+0  51829-4 0  9994
2 38042  52.0067 218.3042 0000394  46.5389  31.7970 12.62268186569863
GLOBALSTAR M092 [+]     
1 38043U 11080D   24109.51647106 -.00000043  00000+0  33742-3 0  9993
2 38043  52.0084 308.5394 0000608 108.8772 267.9330 12.62278453568322
GLOBALSTAR M090 [+]     
1 38044U 11080E   24109.50381868 -.00000098  00000+0  34411-4 0  9998
2 38044  51.9877 212.5779 0000431  91.8415 347.8240 12.62268221569984
GLOBALSTAR M086 [+]     
1 38045U 11080F   24109.45083161 -.00000101  00000+0  14231-4 0  9991
2 38045  51.9887 213.2580 0001474 106.7137 331.5942 12.62269586569927
GLOBALSTAR M097 [+]     
1 39072U 13005A   24109.30189786 -.00000085  00000+0  10674-3 0  9992
2 39072  52.0023 127.8278 0000506  67.8494 292.2426 12.62262437517150
GLOBALSTAR M093 [+]     
1 39073U 13005B   24109.90875371 -.00000075  00000+0  16208-3 0  9999
2 39073  51.9788 119.9609 0000587  57.4467 302.6456 12.62263223517187
GLOBALSTAR M094 [+]     
1 39074U 13005C   24108.95858496 -.00000086  00000+0  99197-4 0  9994
2 39074  51.9982  36.8105 0000824  64.6834 295.4117 12.62264384518671
GLOBALSTAR M096 [+]     
1 39075U 13005D   24109.92189481 -.00000093  00000+0  60756-4 0  9991
2 39075  52.0071  82.0596 0000730  52.8140 307.2793 12.62264309517718
GLOBALSTAR M078 [+]     
1 39076U 13005E   24109.34179966  .00000014  00000+0  65506-3 0  9994
2 39076  51.9855 168.9205 0000722 331.7869  28.2959 12.62262746516262
GLOBALSTAR M095 [+]     
1 39077U 13005F   24109.44656931 -.00000080  00000+0  13523-3 0  9994
2 39077  51.9783 166.0036 0000579  27.0984 332.9913 12.62265274516137
GLOBALSTAR M087 [+]     
1 52888U 22064A   24109.03158322 -.00000080  00000+0  91522-4 0  9996
2 52888  51.9768  58.1380 0008993 209.6943 150.3448 13.37569980 89470
